OBJECT_NAME,OBJECT_ID,EPOCH,MEAN_MOTION,ECCENTRICITY,INCLINATION,RA_OF_ASC_NODE,ARG_OF_PERICENTER,MEAN_ANOMALY,EPHEMERIS_TYPE,CLASSIFICATION_TYPE,NORAD_CAT_ID,ELEMENT_SET_NO,REV_AT_EPOCH,BSTAR,MEAN_MOTION_DOT,MEAN_MOTION_DDOT
ONEWEB-0063,2020-020AA,2026-06-08T02:16:17.112000,13.11416920,.0002104,87.8903,22.8776,88.0252,272.1116,0,U,45448,999,30150,-.28737E-3,-.89E-6,0
ONEWEB-0019,2020-020AB,2026-06-08T03:12:03.028032,13.11418851,.0001687,87.8899,22.8573,86.4438,273.6883,0,U,45449,999,30135,.36127E-3,.141E-5,0
ONEWEB-0094,2020-020AC,2026-06-08T02:10:26.473152,13.17650019,.0001672,87.9149,7.6583,82.2389,277.8932,0,U,45450,999,30511,-.26529E-4,.3E-7,0
ONEWEB-0087,2020-020AD,2026-06-08T02:30:31.785984,13.11416050,.0001792,87.8913,22.8488,74.4852,285.6473,0,U,45451,999,30139,-.14147E-2,-.489E-5,0
ONEWEB-0082,2020-020AE,2026-06-08T02:25:39.962208,13.11416563,.0002032,87.8902,22.8669,71.2154,288.9195,0,U,45452,999,30148,-.78874E-3,-.267E-5,0
ONEWEB-0050,2020-020AF,2026-06-08T03:29:13.310016,14.90344000,.0004498,88.9300,234.4375,47.2534,312.9073,0,U,45453,999,33903,.27914E-3,.2734E-4,0
ONEWEB-0034,2020-020AG,2026-06-08T03:19:17.469696,13.11033516,.0001694,87.8907,22.8696,87.4634,272.6688,0,U,45454,999,30140,.34854E-1,.12313E-3,0
ONEWEB-0060,2020-020AH,2026-06-08T02:14:51.639072,13.11415719,.0001712,87.8895,22.8765,50.4551,309.6728,0,U,45455,999,30135,-.10457E-3,-.24E-6,0
ONEWEB-0086,2020-020AJ,2026-06-08T03:34:02.896896,13.11455482,.0001357,87.8907,22.8605,68.9756,291.1517,0,U,45456,999,30142,.16904E-2,.612E-5,0
ONEWEB-0088,2020-020AK,2026-06-08T03:02:28.836096,13.11419458,.0002223,87.8914,22.8372,82.6641,277.4740,0,U,45457,999,30135,-.37503E-3,-.12E-5,0
ONEWEB-0102,2020-100A,2026-06-08T01:28:54.545088,13.12444851,.0001483,87.8941,352.4912,90.8437,269.2861,0,U,47258,999,26353,.11021E-2,.409E-5,0
ONEWEB-0109,2020-100B,2026-06-07T22:01:32.711808,13.12443452,.0001731,87.8952,352.5022,93.8650,266.2676,0,U,47259,999,26334,.12526E-2,.463E-5,0
ONEWEB-0110,2020-100C,2026-06-08T02:20:07.742112,13.12443573,.0001565,87.8949,352.4505,83.8959,276.2348,0,U,47260,999,26353,-.96224E-3,-.333E-5,0
ONEWEB-0111,2020-100D,2026-06-08T01:14:15.131328,13.12444609,.000181,87.8950,352.4787,85.5489,274.5846,0,U,47261,999,26336,.5892E-3,.225E-5,0
ONEWEB-0114,2020-100E,2026-06-08T00:08:23.820000,13.12442356,.0001912,87.8953,352.4849,96.2711,263.8635,0,U,47262,999,26331,.22447E-3,.93E-6,0
ONEWEB-0117,2020-100F,2026-06-07T22:06:25.568928,13.12441926,.0001774,87.8948,352.4930,89.1506,270.9826,0,U,47263,999,26331,.78714E-3,.296E-5,0
ONEWEB-0118,2020-100G,2026-06-08T00:44:58.951968,13.12442891,.0002078,87.8954,352.4745,93.5882,266.5485,0,U,47264,999,26352,-.9034E-3,-.312E-5,0
ONEWEB-0119,2020-100H,2026-06-08T01:21:35.803296,13.12443742,.0001789,87.8939,352.4864,89.1994,270.9340,0,U,47265,999,26350,.11555E-2,.428E-5,0
ONEWEB-0120,2020-100J,2026-06-08T00:06:10.046016,13.12442210,.0001752,87.8941,352.4978,94.9279,265.2050,0,U,47266,999,26352,.3788E-3,.149E-5,0
ONEWEB-0121,2020-100K,2026-06-07T21:59:06.542016,13.12442610,.0001834,87.8951,352.5005,78.6838,281.4497,0,U,47267,999,26342,.11491E-2,.426E-5,0
ONEWEB-0122,2020-100L,2026-06-08T01:30:08.621856,13.12442866,.0001663,87.8952,352.4758,91.5643,268.5676,0,U,47268,999,26335,.10477E-2,.39E-5,0
ONEWEB-0123,2020-100M,2026-06-08T01:24:02.303136,13.12444030,.000188,87.8944,352.4853,89.5198,270.6146,0,U,47269,999,26349,.10649E-2,.396E-5,0
ONEWEB-0124,2020-100N,2026-06-08T01:09:23.749056,13.12444335,.0001845,87.8937,352.4904,85.6581,274.4759,0,U,47270,999,26337,.21917E-3,.92E-6,0
ONEWEB-0125,2020-100P,2026-06-08T02:27:26.760384,13.12444844,.0002035,87.8949,352.4615,82.9206,277.2154,0,U,47271,999,26344,-.10728E-2,-.373E-5,0
ONEWEB-0126,2020-100Q,2026-06-08T01:07:09.442848,13.12444105,.0001821,87.8944,352.4892,93.0881,267.0456,0,U,47272,999,26350,-.94093E-4,-.21E-6,0
ONEWEB-0127,2020-100R,2026-06-08T02:07:55.949664,13.12442235,.0001742,87.8940,352.4797,93.1006,267.0322,0,U,47273,999,26353,-.44779E-3,-.148E-5,0
ONEWEB-0128,2020-100S,2026-06-08T00:49:51.547296,13.12443119,.0001567,87.8939,352.5050,82.7822,277.3485,0,U,47274,999,26354,-.90045E-3,-.311E-5,0
ONEWEB-0129,2020-100T,2026-06-08T02:10:22.362240,13.12441642,.0001992,87.8950,352.4660,123.5175,236.6144,0,U,47275,999,26348,-.52384E-3,-.176E-5,0
ONEWEB-0130,2020-100U,2026-06-08T00:59:38.022720,13.12444208,.0001717,87.8951,352.4714,90.8560,269.2765,0,U,47276,999,26344,-.42815E-3,-.141E-5,0
ONEWEB-0131,2020-100V,2026-06-08T00:54:44.545248,13.12444721,.0001767,87.8938,352.4912,89.2303,270.9028,0,U,47277,999,26348,-.86399E-3,-.298E-5,0
