ONEWEB-0063             
1 45448U 20020AA  26159.09464250 -.00000089  00000+0 -28737-3 0  9990
2 45448  87.8903  22.8776 0002104  88.0252 272.1116 13.11416920301503
ONEWEB-0019             
1 45449U 20020AB  26159.13336838  .00000141  00000+0  36127-3 0  9995
2 45449  87.8899  22.8573 0001687  86.4438 273.6883 13.11418851301351
ONEWEB-0094             
1 45450U 20020AC  26159.09058418  .00000003  00000+0 -26529-4 0  9991
2 45450  87.9149   7.6583 0001672  82.2389 277.8932 13.17650019305116
ONEWEB-0087             
1 45451U 20020AD  26159.10453456 -.00000489  00000+0 -14147-2 0  9995
2 45451  87.8913  22.8488 0001792  74.4852 285.6473 13.11416050301391
ONEWEB-0082             
1 45452U 20020AE  26159.10115697 -.00000267  00000+0 -78874-3 0  9990
2 45452  87.8902  22.8669 0002032  71.2154 288.9195 13.11416563301485
ONEWEB-0050             
1 45453U 20020AF  26159.14529294  .00002734  00000+0  27914-3 0  9995
2 45453  88.9300 234.4375 0004498  47.2534 312.9073 14.90344000339037
ONEWEB-0034             
1 45454U 20020AG  26159.13839664  .00012313  00000+0  34854-1 0  9993
2 45454  87.8907  22.8696 0001694  87.4634 272.6688 13.11033516301409
ONEWEB-0060             
1 45455U 20020AH  26159.09365323 -.00000024  00000+0 -10457-3 0  9998
2 45455  87.8895  22.8765 0001712  50.4551 309.6728 13.11415719301351
ONEWEB-0086             
1 45456U 20020AJ  26159.14864464  .00000612  00000+0  16904-2 0  9998
2 45456  87.8907  22.8605 0001357  68.9756 291.1517 13.11455482301425
ONEWEB-0088             
1 45457U 20020AK  26159.12672264 -.00000120  00000+0 -37503-3 0  9997
2 45457  87.8914  22.8372 0002223  82.6641 277.4740 13.11419458301354
ONEWEB-0102             
1 47258U 20100A   26159.06174242  .00000409  00000+0  11021-2 0  9997
2 47258  87.8941 352.4912 0001483  90.8437 269.2861 13.12444851263534
ONEWEB-0109             
1 47259U 20100B   26158.91773972  .00000463  00000+0  12526-2 0  9997
2 47259  87.8952 352.5022 0001731  93.8650 266.2676 13.12443452263342
ONEWEB-0110             
1 47260U 20100C   26159.09731183 -.00000333  00000+0 -96224-3 0  9993
2 47260  87.8949 352.4505 0001565  83.8959 276.2348 13.12443573263533
ONEWEB-0111             
1 47261U 20100D   26159.05156402  .00000225  00000+0  58920-3 0  9994
2 47261  87.8950 352.4787 0001810  85.5489 274.5846 13.12444609263364
ONEWEB-0114             
1 47262U 20100E   26159.00583125  .00000093  00000+0  22447-3 0  9994
2 47262  87.8953 352.4849 0001912  96.2711 263.8635 13.12442356263316
ONEWEB-0117             
1 47263U 20100F   26158.92112927  .00000296  00000+0  78714-3 0  9996
2 47263  87.8948 352.4930 0001774  89.1506 270.9826 13.12441926263314
ONEWEB-0118             
1 47264U 20100G   26159.03123787 -.00000312  00000+0 -90340-3 0  9996
2 47264  87.8954 352.4745 0002078  93.5882 266.5485 13.12442891263527
ONEWEB-0119             
1 47265U 20100H   26159.05666439  .00000428  00000+0  11555-2 0  9991
2 47265  87.8939 352.4864 0001789  89.1994 270.9340 13.12443742263509
ONEWEB-0120             
1 47266U 20100J   26159.00428294  .00000149  00000+0  37880-3 0  9992
2 47266  87.8941 352.4978 0001752  94.9279 265.2050 13.12442210263525
ONEWEB-0121             
1 47267U 20100K   26158.91604794  .00000426  00000+0  11491-2 0  9990
2 47267  87.8951 352.5005 0001834  78.6838 281.4497 13.12442610263428
ONEWEB-0122             
1 47268U 20100L   26159.06259979  .00000390  00000+0  10477-2 0  9992
2 47268  87.8952 352.4758 0001663  91.5643 268.5676 13.12442866263352
ONEWEB-0123             
1 47269U 20100M   26159.05835999  .00000396  00000+0  10649-2 0  9991
2 47269  87.8944 352.4853 0001880  89.5198 270.6146 13.12444030263499
ONEWEB-0124             
1 47270U 20100N   26159.04819154  .00000092  00000+0  21917-3 0  9991
2 47270  87.8937 352.4904 0001845  85.6581 274.4759 13.12444335263371
ONEWEB-0125             
1 47271U 20100P   26159.10239306 -.00000373  00000+0 -10728-2 0  9995
2 47271  87.8949 352.4615 0002035  82.9206 277.2154 13.12444844263443
ONEWEB-0126             
1 47272U 20100Q   26159.04663707 -.00000021  00000+0 -94093-4 0  9994
2 47272  87.8944 352.4892 0001821  93.0881 267.0456 13.12444105263509
ONEWEB-0127             
1 47273U 20100R   26159.08884201 -.00000148  00000+0 -44779-3 0  9998
2 47273  87.8940 352.4797 0001742  93.1006 267.0322 13.12442235263539
ONEWEB-0128             
1 47274U 20100S   26159.03462439 -.00000311  00000+0 -90045-3 0  9998
2 47274  87.8939 352.5050 0001567  82.7822 277.3485 13.12443119263543
ONEWEB-0129             
1 47275U 20100T   26159.09053660 -.00000176  00000+0 -52384-3 0  9990
2 47275  87.8950 352.4660 0001992 123.5175 236.6144 13.12441642263482
ONEWEB-0130             
1 47276U 20100U   26159.04141230 -.00000141  00000+0 -42815-3 0  9997
2 47276  87.8951 352.4714 0001717  90.8560 269.2765 13.12444208263441
ONEWEB-0131             
1 47277U 20100V   26159.03801557 -.00000298  00000+0 -86399-3 0  9990
2 47277  87.8938 352.4912 0001767  89.2303 270.9028 13.12444721263484
